COSMOS 1933             
1 18958U 88020A   26046.57389095  .00004465  00000+0  21955-3 0  9996
2 18958  82.5112 272.7948 0002636 286.0033  74.0910 15.17785630 46879
SL-3 R/B                
1 19046U 88032B   26046.54385362  .00006689  00000+0  31475-3 0  9996
2 19046  97.5153  29.8838 0024700 314.5264  45.3952 15.19622485 48742
SL-16 R/B               
1 19120U 88039B   26046.57316415  .00000173  00000+0  10456-3 0  9990
2 19120  71.0143 115.3167 0021393   7.8532 352.2924 14.19613041955240
COSMOS 1953             
1 19210U 88050A   26046.42976341  .00011878  00000+0  43178-3 0  9998
2 19210  82.5097 180.6208 0011010 197.8702 162.2152 15.28082114 34387
SL-8 R/B                
1 19257U 88053B   26046.48061772  .00000277  00000+0  98171-4 0  9996
2 19257  74.0485 153.4000 0020693 336.6075  98.2353 14.38902376973403
COSMOS 1975             
1 19573U 88093A   26046.32633789  .00011077  00000+0  40761-3 0  9998
2 19573  82.5225 140.1224 0010393 245.6564 114.3590 15.27684786 15994
SL-14 R/B               
1 19574U 88093B   26046.51292881  .00000557  00000+0  61170-4 0  9993
2 19574  82.5278  62.8674 0022251 110.1742   2.8015 14.85630450997749
SL-16 R/B               
1 19650U 88102B   26046.51363708  .00000179  00000+0  11459-3 0  9990
2 19650  70.9988 198.1533 0012751  37.3033 322.8973 14.16151240923754
INTERCOSMOS 24          
1 20261U 89080A   26046.32445818  .00000613  00000+0  17883-3 0  9998
2 20261  82.6057 118.9635 1187618 344.7686  12.0339 12.59525635663987
SL-14 R/B               
1 20262U 89080C   26046.39061722  .00000578  00000+0  17444-3 0  9997
2 20262  82.5955 187.4994 1229607 235.7316 112.1331 12.50465049657369
DELTA 1 R/B             
1 20323U 89089B   26046.54828639  .00000373  00000+0  10107-3 0  9991
2 20323  97.0721 257.5062 0068762 191.4899 168.4733 14.50644489892528
ARIANE 40 R/B           
1 20443U 90005H   26046.57626263  .00000286  00000+0  10469-3 0  9990
2 20443  98.3133 107.8911 0008873 270.6789  89.3383 14.39855472889629
