CCSDS_OMM_VERS = 2.0
CREATION_DATE  = 
ORIGINATOR     = 

OBJECT_NAME    = COSMOS 1933
OBJECT_ID      = 1988-020A
CENTER_NAME    = EARTH
REF_FRAME      = TEME
TIME_SYSTEM    = UTC
MEAN_ELEMENT_THEORY = SGP/SGP4

EPOCH          = 2026-02-15T13:46:24.178080
MEAN_MOTION    = 15.17785630
ECCENTRICITY   = .00026369
INCLINATION    = 82.5112
RA_OF_ASC_NODE = 272.7948
ARG_OF_PERICENTER = 286.0033
MEAN_ANOMALY   = 74.0910

EPHEMERIS_TYPE = 0
CLASSIFICATION_TYPE = U
NORAD_CAT_ID   = 18958
ELEMENT_SET_NO = 999
REV_AT_EPOCH   = 4687
BSTAR          = .21954561E-3
MEAN_MOTION_DOT = .4465E-4
MEAN_MOTION_DDOT = 0

CCSDS_OMM_VERS = 2.0
CREATION_DATE  = 
ORIGINATOR     = 

OBJECT_NAME    = SL-3 R/B
OBJECT_ID      = 1988-032B
CENTER_NAME    = EARTH
REF_FRAME      = TEME
TIME_SYSTEM    = UTC
MEAN_ELEMENT_THEORY = SGP/SGP4

EPOCH          = 2026-02-15T13:03:08.952768
MEAN_MOTION    = 15.19622485
ECCENTRICITY   = .00247004
INCLINATION    = 97.5153
RA_OF_ASC_NODE = 29.8838
ARG_OF_PERICENTER = 314.5264
MEAN_ANOMALY   = 45.3952

EPHEMERIS_TYPE = 0
CLASSIFICATION_TYPE = U
NORAD_CAT_ID   = 19046
ELEMENT_SET_NO = 999
REV_AT_EPOCH   = 4874
BSTAR          = .31474955E-3
MEAN_MOTION_DOT = .6689E-4
MEAN_MOTION_DDOT = 0

CCSDS_OMM_VERS = 2.0
CREATION_DATE  = 
ORIGINATOR     = 

OBJECT_NAME    = SL-16 R/B
OBJECT_ID      = 1988-039B
CENTER_NAME    = EARTH
REF_FRAME      = TEME
TIME_SYSTEM    = UTC
MEAN_ELEMENT_THEORY = SGP/SGP4

EPOCH          = 2026-02-15T13:45:21.382560
MEAN_MOTION    = 14.19613041
ECCENTRICITY   = .00213937
INCLINATION    = 71.0143
RA_OF_ASC_NODE = 115.3167
ARG_OF_PERICENTER = 7.8532
MEAN_ANOMALY   = 352.2924

EPHEMERIS_TYPE = 0
CLASSIFICATION_TYPE = U
NORAD_CAT_ID   = 19120
ELEMENT_SET_NO = 999
REV_AT_EPOCH   = 95524
BSTAR          = .10456404E-3
MEAN_MOTION_DOT = .173E-5
MEAN_MOTION_DDOT = 0

CCSDS_OMM_VERS = 2.0
CREATION_DATE  = 
ORIGINATOR     = 

OBJECT_NAME    = COSMOS 1953
OBJECT_ID      = 1988-050A
CENTER_NAME    = EARTH
REF_FRAME      = TEME
TIME_SYSTEM    = UTC
MEAN_ELEMENT_THEORY = SGP/SGP4

EPOCH          = 2026-02-15T10:18:51.558624
MEAN_MOTION    = 15.28082114
ECCENTRICITY   = .00110107
INCLINATION    = 82.5097
RA_OF_ASC_NODE = 180.6208
ARG_OF_PERICENTER = 197.8702
MEAN_ANOMALY   = 162.2152

EPHEMERIS_TYPE = 0
CLASSIFICATION_TYPE = U
NORAD_CAT_ID   = 19210
ELEMENT_SET_NO = 999
REV_AT_EPOCH   = 3438
BSTAR          = .43177816E-3
MEAN_MOTION_DOT = .11878E-3
MEAN_MOTION_DDOT = 0

CCSDS_OMM_VERS = 2.0
CREATION_DATE  = 
ORIGINATOR     = 

OBJECT_NAME    = SL-8 R/B
OBJECT_ID      = 1988-053B
CENTER_NAME    = EARTH
REF_FRAME      = TEME
TIME_SYSTEM    = UTC
MEAN_ELEMENT_THEORY = SGP/SGP4

EPOCH          = 2026-02-15T11:32:05.371008
MEAN_MOTION    = 14.38902376
ECCENTRICITY   = .00206939
INCLINATION    = 74.0485
RA_OF_ASC_NODE = 153.4000
ARG_OF_PERICENTER = 336.6075
MEAN_ANOMALY   = 98.2353

EPHEMERIS_TYPE = 0
CLASSIFICATION_TYPE = U
NORAD_CAT_ID   = 19257
ELEMENT_SET_NO = 999
REV_AT_EPOCH   = 97340
BSTAR          = .98170882E-4
MEAN_MOTION_DOT = .277E-5
MEAN_MOTION_DDOT = 0

CCSDS_OMM_VERS = 2.0
CREATION_DATE  = 
ORIGINATOR     = 

OBJECT_NAME    = COSMOS 1975
OBJECT_ID      = 1988-093A
CENTER_NAME    = EARTH
REF_FRAME      = TEME
TIME_SYSTEM    = UTC
MEAN_ELEMENT_THEORY = SGP/SGP4

EPOCH          = 2026-02-15T07:49:55.593696
MEAN_MOTION    = 15.27684786
ECCENTRICITY   = .0010393
INCLINATION    = 82.5225
RA_OF_ASC_NODE = 140.1224
ARG_OF_PERICENTER = 245.6564
MEAN_ANOMALY   = 114.3590

EPHEMERIS_TYPE = 0
CLASSIFICATION_TYPE = U
NORAD_CAT_ID   = 19573
ELEMENT_SET_NO = 999
REV_AT_EPOCH   = 1599
BSTAR          = .40761E-3
MEAN_MOTION_DOT = .11077E-3
MEAN_MOTION_DDOT = 0

CCSDS_OMM_VERS = 2.0
CREATION_DATE  = 
ORIGINATOR     = 

OBJECT_NAME    = SL-14 R/B
OBJECT_ID      = 1988-093B
CENTER_NAME    = EARTH
REF_FRAME      = TEME
TIME_SYSTEM    = UTC
MEAN_ELEMENT_THEORY = SGP/SGP4

EPOCH          = 2026-02-15T12:18:37.049184
MEAN_MOTION    = 14.85630450
ECCENTRICITY   = .00222513
INCLINATION    = 82.5278
RA_OF_ASC_NODE = 62.8674
ARG_OF_PERICENTER = 110.1742
MEAN_ANOMALY   = 2.8015

EPHEMERIS_TYPE = 0
CLASSIFICATION_TYPE = U
NORAD_CAT_ID   = 19574
ELEMENT_SET_NO = 999
REV_AT_EPOCH   = 99774
BSTAR          = .61169635E-4
MEAN_MOTION_DOT = .557E-5
MEAN_MOTION_DDOT = 0

CCSDS_OMM_VERS = 2.0
CREATION_DATE  = 
ORIGINATOR     = 

OBJECT_NAME    = SL-16 R/B
OBJECT_ID      = 1988-102B
CENTER_NAME    = EARTH
REF_FRAME      = TEME
TIME_SYSTEM    = UTC
MEAN_ELEMENT_THEORY = SGP/SGP4

EPOCH          = 2026-02-15T12:19:38.243712
MEAN_MOTION    = 14.16151240
ECCENTRICITY   = .00127512
INCLINATION    = 70.9988
RA_OF_ASC_NODE = 198.1533
ARG_OF_PERICENTER = 37.3033
MEAN_ANOMALY   = 322.8973

EPHEMERIS_TYPE = 0
CLASSIFICATION_TYPE = U
NORAD_CAT_ID   = 19650
ELEMENT_SET_NO = 999
REV_AT_EPOCH   = 92375
BSTAR          = .11458867E-3
MEAN_MOTION_DOT = .179E-5
MEAN_MOTION_DDOT = 0

CCSDS_OMM_VERS = 2.0
CREATION_DATE  = 
ORIGINATOR     = 

OBJECT_NAME    = INTERCOSMOS 24
OBJECT_ID      = 1989-080A
CENTER_NAME    = EARTH
REF_FRAME      = TEME
TIME_SYSTEM    = UTC
MEAN_ELEMENT_THEORY = SGP/SGP4

EPOCH          = 2026-02-15T07:47:13.186752
MEAN_MOTION    = 12.59525635
ECCENTRICITY   = .1187618
INCLINATION    = 82.6057
RA_OF_ASC_NODE = 118.9635
ARG_OF_PERICENTER = 344.7686
MEAN_ANOMALY   = 12.0339

EPHEMERIS_TYPE = 0
CLASSIFICATION_TYPE = U
NORAD_CAT_ID   = 20261
ELEMENT_SET_NO = 999
REV_AT_EPOCH   = 66398
BSTAR          = .17883E-3
MEAN_MOTION_DOT = .613E-5
MEAN_MOTION_DDOT = 0

CCSDS_OMM_VERS = 2.0
CREATION_DATE  = 
ORIGINATOR     = 

OBJECT_NAME    = SL-14 R/B
OBJECT_ID      = 1989-080C
CENTER_NAME    = EARTH
REF_FRAME      = TEME
TIME_SYSTEM    = UTC
MEAN_ELEMENT_THEORY = SGP/SGP4

EPOCH          = 2026-02-15T09:22:29.327808
MEAN_MOTION    = 12.50465049
ECCENTRICITY   = .12296074
INCLINATION    = 82.5955
RA_OF_ASC_NODE = 187.4994
ARG_OF_PERICENTER = 235.7316
MEAN_ANOMALY   = 112.1331

EPHEMERIS_TYPE = 0
CLASSIFICATION_TYPE = U
NORAD_CAT_ID   = 20262
ELEMENT_SET_NO = 999
REV_AT_EPOCH   = 65736
BSTAR          = .17444301E-3
MEAN_MOTION_DOT = .578E-5
MEAN_MOTION_DDOT = 0

CCSDS_OMM_VERS = 2.0
CREATION_DATE  = 
ORIGINATOR     = 

OBJECT_NAME    = DELTA 1 R/B
OBJECT_ID      = 1989-089B
CENTER_NAME    = EARTH
REF_FRAME      = TEME
TIME_SYSTEM    = UTC
MEAN_ELEMENT_THEORY = SGP/SGP4

EPOCH          = 2026-02-15T13:09:31.944096
MEAN_MOTION    = 14.50644489
ECCENTRICITY   = .00687626
INCLINATION    = 97.0721
RA_OF_ASC_NODE = 257.5062
ARG_OF_PERICENTER = 191.4899
MEAN_ANOMALY   = 168.4733

EPHEMERIS_TYPE = 0
CLASSIFICATION_TYPE = U
NORAD_CAT_ID   = 20323
ELEMENT_SET_NO = 999
REV_AT_EPOCH   = 89252
BSTAR          = .10106994E-3
MEAN_MOTION_DOT = .373E-5
MEAN_MOTION_DDOT = 0

CCSDS_OMM_VERS = 2.0
CREATION_DATE  = 
ORIGINATOR     = 

OBJECT_NAME    = ARIANE 40 R/B
OBJECT_ID      = 1990-005H
CENTER_NAME    = EARTH
REF_FRAME      = TEME
TIME_SYSTEM    = UTC
MEAN_ELEMENT_THEORY = SGP/SGP4

EPOCH          = 2026-02-15T13:49:49.091232
MEAN_MOTION    = 14.39855472
ECCENTRICITY   = .00088738
INCLINATION    = 98.3133
RA_OF_ASC_NODE = 107.8911
ARG_OF_PERICENTER = 270.6789
MEAN_ANOMALY   = 89.3383

EPHEMERIS_TYPE = 0
CLASSIFICATION_TYPE = U
NORAD_CAT_ID   = 20443
ELEMENT_SET_NO = 999
REV_AT_EPOCH   = 88962
BSTAR          = .10468743E-3
MEAN_MOTION_DOT = .286E-5
MEAN_MOTION_DDOT = 0

